KPIT 122051Z 35009KT 10SM CLR 11/M02 A3029 RMK AO2 SLP267 T01061022 51009

