KYNG 141651Z 13016G25KT 7SM -RA BKN023 OVC040 04/02 A2993 RMK AO2 SLP142 P0003 T00390017
