KYNG 122051Z 02007KT 10SM FEW036 08/M02 A3032 RMK AO2 SLP275 T00831017 53006

